[{"COMMENT":"GENERATED VIA SPACETRACK.ORG API","ORIGINATOR":"18 SPCS","NORAD_CAT_ID":"43477","OBJECT_NAME":"GRACE-FO 2","OBJECT_TYPE":"PAYLOAD","CLASSIFICATION_TYPE":"U","INTLDES":"18047B","EPOCH":"2023-12-24 20:53:03","EPOCH_MICROSECONDS":"479424","MEAN_MOTION":"15.27671012","ECCENTRICITY":"0.001519","INCLINATION":"88.9821","RA_OF_ASC_NODE":"323.1941","ARG_OF_PERICENTER":"35.0986","MEAN_ANOMALY":"325.1261","EPHEMERIS_TYPE":"0","ELEMENT_SET_NO":"999","REV_AT_EPOCH":"31109","BSTAR":"0.00020567","MEAN_MOTION_DOT":"0.00005605","MEAN_MOTION_DDOT":"0","FILE":"4144243","TLE_LINE0":"0 GRACE-FO 2","TLE_LINE1":"1 43477U 18047B   23358.87017916  .00005605  00000-0  20567-3 0  9994","TLE_LINE2":"2 43477  88.9821 323.1941 0015190  35.0986 325.1261 15.27671012311099","OBJECT_ID":"2018-047B","OBJECT_NUMBER":"43477","SEMIMAJOR_AXIS":"6860.914","PERIOD":"94.261","APOGEE":"493.200","PERIGEE":"472.357","DECAYED":"0"},{"COMMENT":"GENERATED VIA SPACETRACK.ORG API","ORIGINATOR":"18 SPCS","NORAD_CAT_ID":"43477","OBJECT_NAME":"GRACE-FO 2","OBJECT_TYPE":"PAYLOAD","CLASSIFICATION_TYPE":"U","INTLDES":"18047B","EPOCH":"2023-12-24 22:27:23","EPOCH_MICROSECONDS":"115744","MEAN_MOTION":"15.276714","ECCENTRICITY":"0.0015183","INCLINATION":"88.9821","RA_OF_ASC_NODE":"323.1851","ARG_OF_PERICENTER":"34.8702","MEAN_ANOMALY":"325.3539","EPHEMERIS_TYPE":"0","ELEMENT_SET_NO":"999","REV_AT_EPOCH":"31110","BSTAR":"0.00020277","MEAN_MOTION_DOT":"0.00005526","MEAN_MOTION_DDOT":"0","FILE":"4144500","TLE_LINE0":"0 GRACE-FO 2","TLE_LINE1":"1 43477U 18047B   23358.93568421  .00005526  00000-0  20277-3 0  9993","TLE_LINE2":"2 43477  88.9821 323.1851 0015183  34.8702 325.3539 15.27671400311107","OBJECT_ID":"2018-047B","OBJECT_NUMBER":"43477","SEMIMAJOR_AXIS":"6860.912","PERIOD":"94.261","APOGEE":"493.194","PERIGEE":"472.361","DECAYED":"0"},{"COMMENT":"GENERATED VIA SPACETRACK.ORG API","ORIGINATOR":"18 SPCS","NORAD_CAT_ID":"43477","OBJECT_NAME":"GRACE-FO 2","OBJECT_TYPE":"PAYLOAD","CLASSIFICATION_TYPE":"U","INTLDES":"18047B","EPOCH":"2023-12-25 14:10:39","EPOCH_MICROSECONDS":"177408","MEAN_MOTION":"15.27678824","ECCENTRICITY":"0.0015065","INCLINATION":"88.9823","RA_OF_ASC_NODE":"323.0953","ARG_OF_PERICENTER":"32.7035","MEAN_ANOMALY":"327.5144","EPHEMERIS_TYPE":"0","ELEMENT_SET_NO":"999","REV_AT_EPOCH":"31120","BSTAR":"0.00021222","MEAN_MOTION_DOT":"0.00005783","MEAN_MOTION_DDOT":"0","FILE":"4145093","TLE_LINE0":"0 GRACE-FO 2","TLE_LINE1":"1 43477U 18047B   23359.59073122  .00005783  00000-0  21222-3 0  9991","TLE_LINE2":"2 43477  88.9823 323.0953 0015065  32.7035 327.5144 15.27678824311200","OBJECT_ID":"2018-047B","OBJECT_NUMBER":"43477","SEMIMAJOR_AXIS":"6860.890","PERIOD":"94.261","APOGEE":"493.091","PERIGEE":"472.419","DECAYED":"0"},{"COMMENT":"GENERATED VIA SPACETRACK.ORG API","ORIGINATOR":"18 SPCS","NORAD_CAT_ID":"43477","OBJECT_NAME":"GRACE-FO 2","OBJECT_TYPE":"PAYLOAD","CLASSIFICATION_TYPE":"U","INTLDES":"18047B","EPOCH":"2023-12-25 22:02:17","EPOCH_MICROSECONDS":"114496","MEAN_MOTION":"15.27681997","ECCENTRICITY":"0.0015005","INCLINATION":"88.9824","RA_OF_ASC_NODE":"323.0503","ARG_OF_PERICENTER":"31.5889","MEAN_ANOMALY":"328.6258","EPHEMERIS_TYPE":"0","ELEMENT_SET_NO":"999","REV_AT_EPOCH":"31125","BSTAR":"0.00020177","MEAN_MOTION_DOT":"0.000055","MEAN_MOTION_DDOT":"0","FILE":"4145360","TLE_LINE0":"0 GRACE-FO 2","TLE_LINE1":"1 43477U 18047B   23359.91825364  .00005500  00000-0  20177-3 0  9995","TLE_LINE2":"2 43477  88.9824 323.0503 0015005  31.5889 328.6258 15.27681997311258","OBJECT_ID":"2018-047B","OBJECT_NUMBER":"43477","SEMIMAJOR_AXIS":"6860.881","PERIOD":"94.260","APOGEE":"493.040","PERIGEE":"472.451","DECAYED":"0"},{"COMMENT":"GENERATED VIA SPACETRACK.ORG API","ORIGINATOR":"18 SPCS","NORAD_CAT_ID":"43477","OBJECT_NAME":"GRACE-FO 2","OBJECT_TYPE":"PAYLOAD","CLASSIFICATION_TYPE":"U","INTLDES":"18047B","EPOCH":"2023-12-26 02:45:15","EPOCH_MICROSECONDS":"837696","MEAN_MOTION":"15.27684233","ECCENTRICITY":"0.0014968","INCLINATION":"88.9824","RA_OF_ASC_NODE":"323.0234","ARG_OF_PERICENTER":"30.9307","MEAN_ANOMALY":"329.2821","EPHEMERIS_TYPE":"0","ELEMENT_SET_NO":"999","REV_AT_EPOCH":"31128","BSTAR":"0.00020565","MEAN_MOTION_DOT":"0.00005606","MEAN_MOTION_DDOT":"0","FILE":"4145467","TLE_LINE0":"0 GRACE-FO 2","TLE_LINE1":"1 43477U 18047B   23360.11476664  .00005606  00000-0  20565-3 0  9992","TLE_LINE2":"2 43477  88.9824 323.0234 0014968  30.9307 329.2821 15.27684233311286","OBJECT_ID":"2018-047B","OBJECT_NUMBER":"43477","SEMIMAJOR_AXIS":"6860.874","PERIOD":"94.260","APOGEE":"493.008","PERIGEE":"472.470","DECAYED":"0"},{"COMMENT":"GENERATED VIA SPACETRACK.ORG API","ORIGINATOR":"18 SPCS","NORAD_CAT_ID":"43477","OBJECT_NAME":"GRACE-FO 2","OBJECT_TYPE":"PAYLOAD","CLASSIFICATION_TYPE":"U","INTLDES":"18047B","EPOCH":"2023-12-26 13:45:32","EPOCH_MICROSECONDS":"768352","MEAN_MOTION":"15.27689333","ECCENTRICITY":"0.001488","INCLINATION":"88.9826","RA_OF_ASC_NODE":"322.9605","ARG_OF_PERICENTER":"29.3804","MEAN_ANOMALY":"330.8279","EPHEMERIS_TYPE":"0","ELEMENT_SET_NO":"999","REV_AT_EPOCH":"31135","BSTAR":"0.00020353","MEAN_MOTION_DOT":"0.00005549","MEAN_MOTION_DDOT":"0","FILE":"4145944","TLE_LINE0":"0 GRACE-FO 2","TLE_LINE1":"1 43477U 18047B   23360.57329593  .00005549  00000-0  20353-3 0  9991","TLE_LINE2":"2 43477  88.9826 322.9605 0014880  29.3804 330.8279 15.27689333311354","OBJECT_ID":"2018-047B","OBJECT_NUMBER":"43477","SEMIMAJOR_AXIS":"6860.859","PERIOD":"94.260","APOGEE":"492.933","PERIGEE":"472.515","DECAYED":"0"},{"COMMENT":"GENERATED VIA SPACETRACK.ORG API","ORIGINATOR":"18 SPCS","NORAD_CAT_ID":"43477","OBJECT_NAME":"GRACE-FO 2","OBJECT_TYPE":"PAYLOAD","CLASSIFICATION_TYPE":"U","INTLDES":"18047B","EPOCH":"2023-12-26 21:37:10","EPOCH_MICROSECONDS":"489440","MEAN_MOTION":"15.27692733","ECCENTRICITY":"0.0014819","INCLINATION":"88.9827","RA_OF_ASC_NODE":"322.9156","ARG_OF_PERICENTER":"28.2284","MEAN_ANOMALY":"331.9766","EPHEMERIS_TYPE":"0","ELEMENT_SET_NO":"999","REV_AT_EPOCH":"31140","BSTAR":"0.00019483","MEAN_MOTION_DOT":"0.00005314","MEAN_MOTION_DDOT":"0","FILE":"4146233","TLE_LINE0":"0 GRACE-FO 2","TLE_LINE1":"1 43477U 18047B   23360.90081585  .00005314  00000-0  19483-3 0  9996","TLE_LINE2":"2 43477  88.9827 322.9156 0014819  28.2284 331.9766 15.27692733311405","OBJECT_ID":"2018-047B","OBJECT_NUMBER":"43477","SEMIMAJOR_AXIS":"6860.849","PERIOD":"94.260","APOGEE":"492.881","PERIGEE":"472.546","DECAYED":"0"},{"COMMENT":"GENERATED VIA SPACETRACK.ORG API","ORIGINATOR":"18 SPCS","NORAD_CAT_ID":"43477","OBJECT_NAME":"GRACE-FO 2","OBJECT_TYPE":"PAYLOAD","CLASSIFICATION_TYPE":"U","INTLDES":"18047B","EPOCH":"2023-12-27 10:11:46","EPOCH_MICROSECONDS":"727232","MEAN_MOTION":"15.27698188","ECCENTRICITY":"0.0014718","INCLINATION":"88.9829","RA_OF_ASC_NODE":"322.8438","ARG_OF_PERICENTER":"26.4386","MEAN_ANOMALY":"333.7612","EPHEMERIS_TYPE":"0","ELEMENT_SET_NO":"999","REV_AT_EPOCH":"31148","BSTAR":"0.00019087","MEAN_MOTION_DOT":"0.00005207","MEAN_MOTION_DDOT":"0","FILE":"4146525","TLE_LINE0":"0 GRACE-FO 2","TLE_LINE1":"1 43477U 18047B   23361.42484638  .00005207  00000-0  19087-3 0  9991","TLE_LINE2":"2 43477  88.9829 322.8438 0014718  26.4386 333.7612 15.27698188311488","OBJECT_ID":"2018-047B","OBJECT_NUMBER":"43477","SEMIMAJOR_AXIS":"6860.832","PERIOD":"94.259","APOGEE":"492.795","PERIGEE":"472.599","DECAYED":"0"},{"COMMENT":"GENERATED VIA SPACETRACK.ORG API","ORIGINATOR":"18 SPCS","NORAD_CAT_ID":"43477","OBJECT_NAME":"GRACE-FO 2","OBJECT_TYPE":"PAYLOAD","CLASSIFICATION_TYPE":"U","INTLDES":"18047B","EPOCH":"2023-12-27 13:20:25","EPOCH_MICROSECONDS":"757952","MEAN_MOTION":"15.27699631","ECCENTRICITY":"0.0014684","INCLINATION":"88.983","RA_OF_ASC_NODE":"322.8259","ARG_OF_PERICENTER":"25.9864","MEAN_ANOMALY":"334.212","EPHEMERIS_TYPE":"0","ELEMENT_SET_NO":"999","REV_AT_EPOCH":"31150","BSTAR":"0.00019259","MEAN_MOTION_DOT":"0.00005254","MEAN_MOTION_DDOT":"0","FILE":"4146803","TLE_LINE0":"0 GRACE-FO 2","TLE_LINE1":"1 43477U 18047B   23361.55585368  .00005254  00000-0  19259-3 0  9990","TLE_LINE2":"2 43477  88.9830 322.8259 0014684  25.9864 334.2120 15.27699631311505","OBJECT_ID":"2018-047B","OBJECT_NUMBER":"43477","SEMIMAJOR_AXIS":"6860.828","PERIOD":"94.259","APOGEE":"492.767","PERIGEE":"472.618","DECAYED":"0"},{"COMMENT":"GENERATED VIA SPACETRACK.ORG API","ORIGINATOR":"18 SPCS","NORAD_CAT_ID":"43477","OBJECT_NAME":"GRACE-FO 2","OBJECT_TYPE":"PAYLOAD","CLASSIFICATION_TYPE":"U","INTLDES":"18047B","EPOCH":"2023-12-27 21:12:03","EPOCH_MICROSECONDS":"305376","MEAN_MOTION":"15.27702018","ECCENTRICITY":"0.0014625","INCLINATION":"88.983","RA_OF_ASC_NODE":"322.7811","ARG_OF_PERICENTER":"24.8006","MEAN_ANOMALY":"335.3943","EPHEMERIS_TYPE":"0","ELEMENT_SET_NO":"999","REV_AT_EPOCH":"31155","BSTAR":"0.00017541","MEAN_MOTION_DOT":"0.00004788","MEAN_MOTION_DDOT":"0","FILE":"4147095","TLE_LINE0":"0 GRACE-FO 2","TLE_LINE1":"1 43477U 18047B   23361.88337159  .00004788  00000-0  17541-3 0  9992","TLE_LINE2":"2 43477  88.9830 322.7811 0014625  24.8006 335.3943 15.27702018311553","OBJECT_ID":"2018-047B","OBJECT_NUMBER":"43477","SEMIMAJOR_AXIS":"6860.821","PERIOD":"94.259","APOGEE":"492.720","PERIGEE":"472.652","DECAYED":"0"}]